ONEWEB-0264             
1 48982U 21060R   26076.22798244  .00000208  00000+0  51026-3 0  9995
2 48982  87.9011 247.0708 0001671 105.8967 254.2348 13.16594185227493
ONEWEB-0266             
1 48984U 21060T   26076.17335133  .00000025  00000+0  31114-4 0  9999
2 48984  87.9016 247.0709 0001682  94.2464 265.8859 13.16597662227472
ONEWEB-0267             
1 48985U 21060U   26076.18444512 -.00000053  00000+0 -17329-3 0  9997
2 48985  87.9011 247.0650 0001808 102.9297 257.2036 13.16594328227483
ONEWEB-0268             
1 48986U 21060V   26076.22878031  .00000073  00000+0  15861-3 0  9999
2 48986  87.9011 247.0661 0001643  99.4534 260.6783 13.16594666227759
ONEWEB-0269             
1 48987U 21060W   26076.20977841  .00000031  00000+0  46898-4 0  9996
2 48987  87.8999 247.0827 0001486  96.1162 264.0138 13.16594291227525
ONEWEB-0270             
1 48988U 21060X   26076.22719792  .00000073  00000+0  15776-3 0  9994
2 48988  87.9010 247.0681 0002092 100.3599 259.7768 13.16594468227565
ONEWEB-0271             
1 48989U 21060Y   26076.21450687 -.00000250  00000+0 -68745-3 0  9992
2 48989  87.9012 247.0616 0001891 103.4285 256.7057 13.16594937227567
ONEWEB-0272             
1 48990U 21060Z   26076.23668754 -.00000789  00000+0 -20970-2 0  9996
2 48990  87.9010 247.0686 0001761 106.0311 254.1014 13.16587023227517
ONEWEB-0273             
1 48991U 21060AA  26076.18286472  .00000009  00000+0 -10631-4 0  9993
2 48991  87.9013 247.0774 0001831  99.3579 260.7759 13.16594494227482
ONEWEB-0274             
1 48992U 21060AB  26076.20819726  .00000048  00000+0  91995-4 0  9995
2 48992  87.8999 247.0846 0001499 107.5554 252.5741 13.16594233227526
ONEWEB-0275             
1 48993U 21060AC  26076.19711275 -.00000080  00000+0 -24351-3 0  9993
2 48993  87.9009 247.0668 0001723 100.8762 259.2563 13.16594352227459
ONEWEB-0276             
1 48994U 21060AD  26076.23036301  .00000165  00000+0  39823-3 0  9991
2 48994  87.9009 247.0607 0001842  94.3778 265.7563 13.16595205227471
ONEWEB-0277             
1 48995U 21060AE  26076.16701547  .00000061  00000+0  12607-3 0  9991
2 48995  87.9001 247.0879 0001823 100.3435 259.7902 13.16595743227457
ONEWEB-0278             
1 48996U 21060AF  26076.23352256  .00000135  00000+0  31820-3 0  9999
2 48996  87.9013 247.0570 0001658  88.9992 271.1329 13.16595054227595
ONEWEB-0279             
1 48997U 21060AG  26076.16544904  .00000040  00000+0  70323-4 0  9992
2 48997  87.9015 247.0699 0001799 105.8064 254.3265 13.16594306227518
ONEWEB-0280             
1 48998U 21060AH  26076.18049060 -.00000033  00000+0 -12085-3 0  9992
2 48998  87.9013 247.0715 0002015  92.2323 267.9039 13.16595316227459
