[{"OBJECT_NAME":"ONEWEB-0264","OBJECT_ID":"2021-060R","EPOCH":"2026-03-17T05:28:17.682816","MEAN_MOTION":13.16594185,"ECCENTRICITY":0.00016717,"INCLINATION":87.9011,"RA_OF_ASC_NODE":247.0708,"ARG_OF_PERICENTER":105.8967,"MEAN_ANOMALY":254.2348,"EPHEMERIS_TYPE":0,"CLASSIFICATION_TYPE":"U","NORAD_CAT_ID":48982,"ELEMENT_SET_NO":999,"REV_AT_EPOCH":22749,"BSTAR":0.00051025709,"MEAN_MOTION_DOT":2.08e-6,"MEAN_MOTION_DDOT":0},{"OBJECT_NAME":"ONEWEB-0266","OBJECT_ID":"2021-060T","EPOCH":"2026-03-17T04:09:37.554912","MEAN_MOTION":13.16597662,"ECCENTRICITY":0.00016822,"INCLINATION":87.9016,"RA_OF_ASC_NODE":247.0709,"ARG_OF_PERICENTER":94.2464,"MEAN_ANOMALY":265.8859,"EPHEMERIS_TYPE":0,"CLASSIFICATION_TYPE":"U","NORAD_CAT_ID":48984,"ELEMENT_SET_NO":999,"REV_AT_EPOCH":22747,"BSTAR":3.1113823e-5,"MEAN_MOTION_DOT":2.5e-7,"MEAN_MOTION_DDOT":0},{"OBJECT_NAME":"ONEWEB-0267","OBJECT_ID":"2021-060U","EPOCH":"2026-03-17T04:25:36.058368","MEAN_MOTION":13.16594328,"ECCENTRICITY":0.0001808,"INCLINATION":87.9011,"RA_OF_ASC_NODE":247.065,"ARG_OF_PERICENTER":102.9297,"MEAN_ANOMALY":257.2036,"EPHEMERIS_TYPE":0,"CLASSIFICATION_TYPE":"U","NORAD_CAT_ID":48985,"ELEMENT_SET_NO":999,"REV_AT_EPOCH":22748,"BSTAR":-0.00017329342,"MEAN_MOTION_DOT":-5.3e-7,"MEAN_MOTION_DDOT":0},{"OBJECT_NAME":"ONEWEB-0268","OBJECT_ID":"2021-060V","EPOCH":"2026-03-17T05:29:26.618784","MEAN_MOTION":13.16594666,"ECCENTRICITY":0.00016435,"INCLINATION":87.9011,"RA_OF_ASC_NODE":247.0661,"ARG_OF_PERICENTER":99.4534,"MEAN_ANOMALY":260.6783,"EPHEMERIS_TYPE":0,"CLASSIFICATION_TYPE":"U","NORAD_CAT_ID":48986,"ELEMENT_SET_NO":999,"REV_AT_EPOCH":22775,"BSTAR":0.00015861279,"MEAN_MOTION_DOT":7.3e-7,"MEAN_MOTION_DDOT":0},{"OBJECT_NAME":"ONEWEB-0269","OBJECT_ID":"2021-060W","EPOCH":"2026-03-17T05:02:04.854624","MEAN_MOTION":13.16594291,"ECCENTRICITY":0.00014866,"INCLINATION":87.8999,"RA_OF_ASC_NODE":247.0827,"ARG_OF_PERICENTER":96.1162,"MEAN_ANOMALY":264.0138,"EPHEMERIS_TYPE":0,"CLASSIFICATION_TYPE":"U","NORAD_CAT_ID":48987,"ELEMENT_SET_NO":999,"REV_AT_EPOCH":22752,"BSTAR":4.6898012e-5,"MEAN_MOTION_DOT":3.1e-7,"MEAN_MOTION_DDOT":0},{"OBJECT_NAME":"ONEWEB-0270","OBJECT_ID":"2021-060X","EPOCH":"2026-03-17T05:27:09.900288","MEAN_MOTION":13.16594468,"ECCENTRICITY":0.00020928,"INCLINATION":87.901,"RA_OF_ASC_NODE":247.0681,"ARG_OF_PERICENTER":100.3599,"MEAN_ANOMALY":259.7768,"EPHEMERIS_TYPE":0,"CLASSIFICATION_TYPE":"U","NORAD_CAT_ID":48988,"ELEMENT_SET_NO":999,"REV_AT_EPOCH":22756,"BSTAR":0.00015776321,"MEAN_MOTION_DOT":7.3e-7,"MEAN_MOTION_DDOT":0},{"OBJECT_NAME":"ONEWEB-0271","OBJECT_ID":"2021-060Y","EPOCH":"2026-03-17T05:08:53.393568","MEAN_MOTION":13.16594937,"ECCENTRICITY":0.00018916,"INCLINATION":87.9012,"RA_OF_ASC_NODE":247.0616,"ARG_OF_PERICENTER":103.4285,"MEAN_ANOMALY":256.7057,"EPHEMERIS_TYPE":0,"CLASSIFICATION_TYPE":"U","NORAD_CAT_ID":48989,"ELEMENT_SET_NO":999,"REV_AT_EPOCH":22756,"BSTAR":-0.00068745278,"MEAN_MOTION_DOT":-2.5e-6,"MEAN_MOTION_DDOT":0},{"OBJECT_NAME":"ONEWEB-0272","OBJECT_ID":"2021-060Z","EPOCH":"2026-03-17T05:40:49.803456","MEAN_MOTION":13.16587023,"ECCENTRICITY":0.00017617,"INCLINATION":87.901,"RA_OF_ASC_NODE":247.0686,"ARG_OF_PERICENTER":106.0311,"MEAN_ANOMALY":254.1014,"EPHEMERIS_TYPE":0,"CLASSIFICATION_TYPE":"U","NORAD_CAT_ID":48990,"ELEMENT_SET_NO":999,"REV_AT_EPOCH":22751,"BSTAR":-0.0020969636,"MEAN_MOTION_DOT":-7.89e-6,"MEAN_MOTION_DDOT":0},{"OBJECT_NAME":"ONEWEB-0273","OBJECT_ID":"2021-060AA","EPOCH":"2026-03-17T04:23:19.511808","MEAN_MOTION":13.16594494,"ECCENTRICITY":0.00018316,"INCLINATION":87.9013,"RA_OF_ASC_NODE":247.0774,"ARG_OF_PERICENTER":99.3579,"MEAN_ANOMALY":260.7759,"EPHEMERIS_TYPE":0,"CLASSIFICATION_TYPE":"U","NORAD_CAT_ID":48991,"ELEMENT_SET_NO":999,"REV_AT_EPOCH":22748,"BSTAR":-1.0631037e-5,"MEAN_MOTION_DOT":9.0e-8,"MEAN_MOTION_DDOT":0},{"OBJECT_NAME":"ONEWEB-0274","OBJECT_ID":"2021-060AB","EPOCH":"2026-03-17T04:59:48.243264","MEAN_MOTION":13.16594233,"ECCENTRICITY":0.00014999,"INCLINATION":87.8999,"RA_OF_ASC_NODE":247.0846,"ARG_OF_PERICENTER":107.5554,"MEAN_ANOMALY":252.5741,"EPHEMERIS_TYPE":0,"CLASSIFICATION_TYPE":"U","NORAD_CAT_ID":48992,"ELEMENT_SET_NO":999,"REV_AT_EPOCH":22752,"BSTAR":9.1995326e-5,"MEAN_MOTION_DOT":4.8e-7,"MEAN_MOTION_DDOT":0},{"OBJECT_NAME":"ONEWEB-0275","OBJECT_ID":"2021-060AC","EPOCH":"2026-03-17T04:43:50.541600","MEAN_MOTION":13.16594352,"ECCENTRICITY":0.00017237,"INCLINATION":87.9009,"RA_OF_ASC_NODE":247.0668,"ARG_OF_PERICENTER":100.8762,"MEAN_ANOMALY":259.2563,"EPHEMERIS_TYPE":0,"CLASSIFICATION_TYPE":"U","NORAD_CAT_ID":48993,"ELEMENT_SET_NO":999,"REV_AT_EPOCH":22745,"BSTAR":-0.00024350953,"MEAN_MOTION_DOT":-8.0e-7,"MEAN_MOTION_DDOT":0},{"OBJECT_NAME":"ONEWEB-0276","OBJECT_ID":"2021-060AD","EPOCH":"2026-03-17T05:31:43.364064","MEAN_MOTION":13.16595205,"ECCENTRICITY":0.00018427,"INCLINATION":87.9009,"RA_OF_ASC_NODE":247.0607,"ARG_OF_PERICENTER":94.3778,"MEAN_ANOMALY":265.7563,"EPHEMERIS_TYPE":0,"CLASSIFICATION_TYPE":"U","NORAD_CAT_ID":48994,"ELEMENT_SET_NO":999,"REV_AT_EPOCH":22747,"BSTAR":0.00039822767,"MEAN_MOTION_DOT":1.65e-6,"MEAN_MOTION_DDOT":0},{"OBJECT_NAME":"ONEWEB-0277","OBJECT_ID":"2021-060AE","EPOCH":"2026-03-17T04:00:30.136608","MEAN_MOTION":13.16595743,"ECCENTRICITY":0.00018231,"INCLINATION":87.9001,"RA_OF_ASC_NODE":247.0879,"ARG_OF_PERICENTER":100.3435,"MEAN_ANOMALY":259.7902,"EPHEMERIS_TYPE":0,"CLASSIFICATION_TYPE":"U","NORAD_CAT_ID":48995,"ELEMENT_SET_NO":999,"REV_AT_EPOCH":22745,"BSTAR":0.00012607231,"MEAN_MOTION_DOT":6.1e-7,"MEAN_MOTION_DDOT":0},{"OBJECT_NAME":"ONEWEB-0278","OBJECT_ID":"2021-060AF","EPOCH":"2026-03-17T05:36:16.349184","MEAN_MOTION":13.16595054,"ECCENTRICITY":0.00016589,"INCLINATION":87.9013,"RA_OF_ASC_NODE":247.057,"ARG_OF_PERICENTER":88.9992,"MEAN_ANOMALY":271.1329,"EPHEMERIS_TYPE":0,"CLASSIFICATION_TYPE":"U","NORAD_CAT_ID":48996,"ELEMENT_SET_NO":999,"REV_AT_EPOCH":22759,"BSTAR":0.00031819902,"MEAN_MOTION_DOT":1.35e-6,"MEAN_MOTION_DDOT":0},{"OBJECT_NAME":"ONEWEB-0279","OBJECT_ID":"2021-060AG","EPOCH":"2026-03-17T03:58:14.797056","MEAN_MOTION":13.16594306,"ECCENTRICITY":0.00017997,"INCLINATION":87.9015,"RA_OF_ASC_NODE":247.0699,"ARG_OF_PERICENTER":105.8064,"MEAN_ANOMALY":254.3265,"EPHEMERIS_TYPE":0,"CLASSIFICATION_TYPE":"U","NORAD_CAT_ID":48997,"ELEMENT_SET_NO":999,"REV_AT_EPOCH":22751,"BSTAR":7.0322672e-5,"MEAN_MOTION_DOT":4.0e-7,"MEAN_MOTION_DDOT":0},{"OBJECT_NAME":"ONEWEB-0280","OBJECT_ID":"2021-060AH","EPOCH":"2026-03-17T04:19:54.387840","MEAN_MOTION":13.16595316,"ECCENTRICITY":0.00020151,"INCLINATION":87.9013,"RA_OF_ASC_NODE":247.0715,"ARG_OF_PERICENTER":92.2323,"MEAN_ANOMALY":267.9039,"EPHEMERIS_TYPE":0,"CLASSIFICATION_TYPE":"U","NORAD_CAT_ID":48998,"ELEMENT_SET_NO":999,"REV_AT_EPOCH":22745,"BSTAR":-0.0001208538,"MEAN_MOTION_DOT":-3.3e-7,"MEAN_MOTION_DDOT":0}]
